{
  "type": "FeatureCollection",
  "features": [
    {
      "type": "Feature",
      "properties": {
        "norad_id": 66833,
        "name": "STARLINK-35858",
        "group": "last-30-days",
        "lat": 30.23442113933015,
        "lon": -157.2082034533305,
        "alt_km": 356.5964678910559,
        "timestamp": "2025-12-15T15:53:18.662431+00:00",
        "meta_object_name": "STARLINK-35858",
        "meta_object_id": "2025-280N",
        "meta_epoch": "2025-12-14T20:00:06.000192",
        "meta_mean_motion": 15.73295224,
        "meta_eccentricity": 0.0003543,
        "meta_inclination": 69.9968,
        "meta_ra_of_asc_node": 192.8686,
        "meta_arg_of_pericenter": 272.0389,
        "meta_mean_anomaly": 113.0053,
        "meta_ephemeris_type": 0,
        "meta_classification_type": "U",
        "meta_norad_cat_id": 66833,
        "meta_element_set_no": 999,
        "meta_rev_at_epoch": 323,
        "meta_bstar": -0.013169817,
        "meta_mean_motion_dot": -0.01623222,
        "meta_mean_motion_ddot": 0,
        "tle_line1": "1 66833U 25280N   25348.83340278 -.01623222  00000+0 -13170-1 0  9992",
        "tle_line2": "2 66833  69.9968 192.8686 0003543 272.0389 113.0053 15.73295224  3232"
      },
      "geometry": {
        "type": "Point",
        "coordinates": [
          -157.2082034533305,
          30.23442113933015
        ]
      }
    },
    {
      "type": "Feature",
      "properties": {
        "norad_id": 66834,
        "name": "STARLINK-35840",
        "group": "last-30-days",
        "lat": 31.984792858650888,
        "lon": -156.31888121509067,
        "alt_km": 356.4360613395447,
        "timestamp": "2025-12-15T15:53:18.662440+00:00",
        "meta_object_name": "STARLINK-35840",
        "meta_object_id": "2025-280P",
        "meta_epoch": "2025-12-14T20:00:06.000192",
        "meta_mean_motion": 15.73292113,
        "meta_eccentricity": 0.00034626,
        "meta_inclination": 69.9959,
        "meta_ra_of_asc_node": 192.8655,
        "meta_arg_of_pericenter": 269.4457,
        "meta_mean_anomaly": 117.5158,
        "meta_ephemeris_type": 0,
        "meta_classification_type": "U",
        "meta_norad_cat_id": 66834,
        "meta_element_set_no": 999,
        "meta_rev_at_epoch": 323,
        "meta_bstar": -0.01316626,
        "meta_mean_motion_dot": -0.01622572,
        "meta_mean_motion_ddot": 0,
        "tle_line1": "1 66834U 25280P   25348.83340278 -.01622572  00000+0 -13166-1 0  9995",
        "tle_line2": "2 66834  69.9959 192.8655 0003462 269.4457 117.5158 15.73292113  3234"
      },
      "geometry": {
        "type": "Point",
        "coordinates": [
          -156.31888121509067,
          31.984792858650888
        ]
      }
    },
    {
      "type": "Feature",
      "properties": {
        "norad_id": 66835,
        "name": "STARLINK-35890",
        "group": "last-30-days",
        "lat": 33.74058218020377,
        "lon": -155.38807227657307,
        "alt_km": 356.1510828481114,
        "timestamp": "2025-12-15T15:53:18.662449+00:00",
        "meta_object_name": "STARLINK-35890",
        "meta_object_id": "2025-280Q",
        "meta_epoch": "2025-12-14T20:00:06.000192",
        "meta_mean_motion": 15.73293587,
        "meta_eccentricity": 0.00034853,
        "meta_inclination": 69.9959,
        "meta_ra_of_asc_node": 192.8633,
        "meta_arg_of_pericenter": 271.5863,
        "meta_mean_anomaly": 117.2969,
        "meta_ephemeris_type": 0,
        "meta_classification_type": "U",
        "meta_norad_cat_id": 66835,
        "meta_element_set_no": 999,
        "meta_rev_at_epoch": 323,
        "meta_bstar": -0.013184922,
        "meta_mean_motion_dot": -0.01624729,
        "meta_mean_motion_ddot": 0,
        "tle_line1": "1 66835U 25280Q   25348.83340278 -.01624729  00000+0 -13185-1 0  9993",
        "tle_line2": "2 66835  69.9959 192.8633 0003485 271.5863 117.2969 15.73293587  3234"
      },
      "geometry": {
        "type": "Point",
        "coordinates": [
          -155.38807227657307,
          33.74058218020377
        ]
      }
    },
    {
      "type": "Feature",
      "properties": {
        "norad_id": 66836,
        "name": "STARLINK-35838",
        "group": "last-30-days",
        "lat": 35.583947303801786,
        "lon": -154.36388635449973,
        "alt_km": 355.64102658589127,
        "timestamp": "2025-12-15T15:53:18.662460+00:00",
        "meta_object_name": "STARLINK-35838",
        "meta_object_id": "2025-280R",
        "meta_epoch": "2025-12-14T20:00:06.000192",
        "meta_mean_motion": 15.73310655,
        "meta_eccentricity": 0.00042805,
        "meta_inclination": 69.9959,
        "meta_ra_of_asc_node": 192.8617,
        "meta_arg_of_pericenter": 279.7766,
        "meta_mean_anomaly": 110.9516,
        "meta_ephemeris_type": 0,
        "meta_classification_type": "U",
        "meta_norad_cat_id": 66836,
        "meta_element_set_no": 999,
        "meta_rev_at_epoch": 323,
        "meta_bstar": -0.012801182,
        "meta_mean_motion_dot": -0.01554587,
        "meta_mean_motion_ddot": 0,
        "tle_line1": "1 66836U 25280R   25348.83340278 -.01554587  00000+0 -12801-1 0  9992",
        "tle_line2": "2 66836  69.9959 192.8617 0004280 279.7766 110.9516 15.73310655  3237"
      },
      "geometry": {
        "type": "Point",
        "coordinates": [
          -154.36388635449973,
          35.583947303801786
        ]
      }
    },
    {
      "type": "Feature",
      "properties": {
        "norad_id": 66837,
        "name": "STARLINK-35729",
        "group": "last-30-days",
        "lat": 37.216310913204985,
        "lon": -153.4142234934187,
        "alt_km": 355.6395814193784,
        "timestamp": "2025-12-15T15:53:18.662487+00:00",
        "meta_object_name": "STARLINK-35729",
        "meta_object_id": "2025-280S",
        "meta_epoch": "2025-12-14T20:00:06.000192",
        "meta_mean_motion": 15.73307808,
        "meta_eccentricity": 0.00036604,
        "meta_inclination": 69.9958,
        "meta_ra_of_asc_node": 192.8579,
        "meta_arg_of_pericenter": 276.368,
        "meta_mean_anomaly": 116.3346,
        "meta_ephemeris_type": 0,
        "meta_classification_type": "U",
        "meta_norad_cat_id": 66837,
        "meta_element_set_no": 999,
        "meta_rev_at_epoch": 323,
        "meta_bstar": -0.01329827,
        "meta_mean_motion_dot": -0.0163819,
        "meta_mean_motion_ddot": 0,
        "tle_line1": "1 66837U 25280S   25348.83340278 -.01638190  00000+0 -13298-1 0  9997",
        "tle_line2": "2 66837  69.9958 192.8579 0003660 276.3680 116.3346 15.73307808  3230"
      },
      "geometry": {
        "type": "Point",
        "coordinates": [
          -153.4142234934187,
          37.216310913204985
        ]
      }
    },
    {
      "type": "Feature",
      "properties": {
        "norad_id": 66838,
        "name": "STARLINK-35886",
        "group": "last-30-days",
        "lat": 40.68412694630732,
        "lon": -151.22935231442526,
        "alt_km": 355.17500141805886,
        "timestamp": "2025-12-15T15:53:18.662497+00:00",
        "meta_object_name": "STARLINK-35886",
        "meta_object_id": "2025-280T",
        "meta_epoch": "2025-12-14T20:00:06.000192",
        "meta_mean_motion": 15.73303054,
        "meta_eccentricity": 0.00038013,
        "meta_inclination": 69.9956,
        "meta_ra_of_asc_node": 192.8543,
        "meta_arg_of_pericenter": 277.7077,
        "meta_mean_anomaly": 118.8286,
        "meta_ephemeris_type": 0,
        "meta_classification_type": "U",
        "meta_norad_cat_id": 66838,
        "meta_element_set_no": 999,
        "meta_rev_at_epoch": 323,
        "meta_bstar": -0.013183423,
        "meta_mean_motion_dot": -0.01625427,
        "meta_mean_motion_ddot": 0,
        "tle_line1": "1 66838U 25280T   25348.83340278 -.01625427  00000+0 -13183-1 0  9990",
        "tle_line2": "2 66838  69.9956 192.8543 0003801 277.7077 118.8286 15.73303054  3231"
      },
      "geometry": {
        "type": "Point",
        "coordinates": [
          -151.22935231442526,
          40.68412694630732
        ]
      }
    },
    {
      "type": "Feature",
      "properties": {
        "norad_id": 66839,
        "name": "STARLINK-35717",
        "group": "last-30-days",
        "lat": 38.998170588114114,
        "lon": -152.32094445335534,
        "alt_km": 355.324250641469,
        "timestamp": "2025-12-15T15:53:18.662506+00:00",
        "meta_object_name": "STARLINK-35717",
        "meta_object_id": "2025-280U",
        "meta_epoch": "2025-12-14T20:00:06.000192",
        "meta_mean_motion": 15.73304732,
        "meta_eccentricity": 0.00040185,
        "meta_inclination": 69.9956,
        "meta_ra_of_asc_node": 192.8567,
        "meta_arg_of_pericenter": 278.7643,
        "meta_mean_anomaly": 115.8298,
        "meta_ephemeris_type": 0,
        "meta_classification_type": "U",
        "meta_norad_cat_id": 66839,
        "meta_element_set_no": 999,
        "meta_rev_at_epoch": 323,
        "meta_bstar": -0.013013845,
        "meta_mean_motion_dot": -0.01607085,
        "meta_mean_motion_ddot": 0,
        "tle_line1": "1 66839U 25280U   25348.83340278 -.01607085  00000+0 -13014-1 0  9994",
        "tle_line2": "2 66839  69.9956 192.8567 0004018 278.7643 115.8298 15.73304732  3233"
      },
      "geometry": {
        "type": "Point",
        "coordinates": [
          -152.32094445335534,
          38.998170588114114
        ]
      }
    }
  ]
}